STARLINK-2562
1 28288C 21036N   21325.13350888  .00002262  00000-0  15154-3 0  3255
2 28288  53.0551 287.6255 0001890  69.7182 233.4929 15.06403802    19
